{
    "links": {
        "self": "http://www.neowsapp.com/rest/v1/neo/3709967?api_key=iIulBulltgU6a56xZRHN4H3l9WmuAYTsLGpBGhQ2"
    },
    "id": "3709967",
    "neo_reference_id": "3709967",
    "name": "(2015 CG1)",
    "designation": "2015 CG1",
    "nasa_jpl_url": "http://ssd.jpl.nasa.gov/sbdb.cgi?sstr=3709967",
    "absolute_magnitude_h": 23.8,
    "estimated_diameter": {
        "kilometers": {
            "estimated_diameter_min": 0.046190746,
            "estimated_diameter_max": 0.1032856481
        },
        "meters": {
            "estimated_diameter_min": 46.1907460282,
            "estimated_diameter_max": 103.2856480504
        },
        "miles": {
            "estimated_diameter_min": 0.0287015901,
            "estimated_diameter_max": 0.0641787064
        },
        "feet": {
            "estimated_diameter_min": 151.544447199,
            "estimated_diameter_max": 338.8636855496
        }
    },
    "is_potentially_hazardous_asteroid": false,
    "close_approach_data": [
        {
            "close_approach_date": "2015-02-25",
            "close_approach_date_full": "2015-Feb-25 21:35",
            "epoch_date_close_approach": 1424900100000,
            "relative_velocity": {
                "kilometers_per_second": "17.7038004714",
                "kilometers_per_hour": "63733.6816970497",
                "miles_per_hour": "39601.6312744807"
            },
            "miss_distance": {
                "astronomical": "0.0846731756",
                "lunar": "32.9378653084",
                "kilometers": "12666926.715895972",
                "miles": "7870863.2844775336"
            },
            "orbiting_body": "Earth"
        },
        {
            "close_approach_date": "2102-02-07",
            "close_approach_date_full": "2102-Feb-07 22:13",
            "epoch_date_close_approach": 4168793580000,
            "relative_velocity": {
                "kilometers_per_second": "31.3573517408",
                "kilometers_per_hour": "112886.4662669164",
                "miles_per_hour": "70143.2601090181"
            },
            "miss_distance": {
                "astronomical": "0.3897152704",
                "lunar": "151.5992401856",
                "kilometers": "58300574.358314048",
                "miles": "36226297.0705399424"
            },
            "orbiting_body": "Earth"
        },
        {
            "close_approach_date": "2103-10-16",
            "close_approach_date_full": "2103-Oct-16 13:27",
            "epoch_date_close_approach": 4221984420000,
            "relative_velocity": {
                "kilometers_per_second": "31.0316575925",
                "kilometers_per_hour": "111713.9673331332",
                "miles_per_hour": "69414.714868746"
            },
            "miss_distance": {
                "astronomical": "0.4127927831",
                "lunar": "160.5763926259",
                "kilometers": "61752921.103131997",
                "miles": "38371485.8640436786"
            },
            "orbiting_body": "Earth"
        },
        {
            "close_approach_date": "2109-02-28",
            "close_approach_date_full": "2109-Feb-28 03:58",
            "epoch_date_close_approach": 4391467080000,
            "relative_velocity": {
                "kilometers_per_second": "11.3286293929",
                "kilometers_per_hour": "40783.0658142949",
                "miles_per_hour": "25341.0110888879"
            },
            "miss_distance": {
                "astronomical": "0.3783413944",
                "lunar": "147.1748024216",
                "kilometers": "56599066.735069928",
                "miles": "35169029.2596158864"
            },
            "orbiting_body": "Earth"
        }
    ],
    "orbital_data": {
        "orbit_id": "9",
        "orbit_determination_date": "2017-04-06 08:35:46",
        "first_observation_date": "2015-02-10",
        "last_observation_date": "2015-02-23",
        "data_arc_in_days": 13,
        "observations_used": 48,
        "orbit_uncertainty": "8",
        "minimum_orbit_intersection": ".0444939",
        "jupiter_tisserand_invariant": "4.892",
        "epoch_osculation": "2457067.5",
        "eccentricity": ".5789027453466691",
        "semi_major_axis": "1.26638258398801",
        "inclination": "13.16383087145072",
        "ascending_node_longitude": "323.3999128337708",
        "orbital_period": "520.5300673703839",
        "perihelion_distance": ".5332702294581424",
        "perihelion_argument": "296.8622335986603",
        "aphelion_distance": "1.999494938517878",
        "perihelion_time": "2457135.686974834086",
        "mean_anomaly": "312.8417041031286",
        "mean_motion": ".6916026999528569",
        "equinox": "J2000",
        "orbit_class": {
            "orbit_class_type": "APO",
            "orbit_class_description": "Near-Earth asteroid orbits which cross the Earth’s orbit similar to that of 1862 Apollo",
            "orbit_class_range": "a (semi-major axis) > 1.0 AU; q (perihelion) < 1.017 AU"
        }
    },
    "is_sentry_object": false
}